{
    "links": {
        "self": "http://www.neowsapp.com/rest/v1/neo/3843059?api_key=iIulBulltgU6a56xZRHN4H3l9WmuAYTsLGpBGhQ2"
    },
    "id": "3843059",
    "neo_reference_id": "3843059",
    "name": "(2019 MR2)",
    "designation": "2019 MR2",
    "nasa_jpl_url": "http://ssd.jpl.nasa.gov/sbdb.cgi?sstr=3843059",
    "absolute_magnitude_h": 23.9,
    "estimated_diameter": {
        "kilometers": {
            "estimated_diameter_min": 0.04411182,
            "estimated_diameter_max": 0.0986370281
        },
        "meters": {
            "estimated_diameter_min": 44.1118199997,
            "estimated_diameter_max": 98.6370281305
        },
        "miles": {
            "estimated_diameter_min": 0.0274098057,
            "estimated_diameter_max": 0.0612901888
        },
        "feet": {
            "estimated_diameter_min": 144.7238235278,
            "estimated_diameter_max": 323.6123073718
        }
    },
    "is_potentially_hazardous_asteroid": false,
    "close_approach_data": [
        {
            "close_approach_date": "2019-07-13",
            "close_approach_date_full": "2019-Jul-13 08:22",
            "epoch_date_close_approach": 1563006120000,
            "relative_velocity": {
                "kilometers_per_second": "8.59048076",
                "kilometers_per_hour": "30925.7307361368",
                "miles_per_hour": "19216.046412129"
            },
            "miss_distance": {
                "astronomical": "0.1234431054",
                "lunar": "48.0193680006",
                "kilometers": "18466825.634025498",
                "miles": "11474753.3575999524"
            },
            "orbiting_body": "Earth"
        }
    ],
    "orbital_data": {
        "orbit_id": "1",
        "orbit_determination_date": "2019-07-01 19:12:10",
        "first_observation_date": "2019-06-30",
        "last_observation_date": "2019-07-02",
        "data_arc_in_days": 2,
        "observations_used": 14,
        "orbit_uncertainty": "9",
        "minimum_orbit_intersection": ".075783",
        "jupiter_tisserand_invariant": "4.743",
        "epoch_osculation": "2458665.5",
        "eccentricity": ".2239535376747435",
        "semi_major_axis": "1.382663754229615",
        "inclination": "12.88940815678633",
        "ascending_node_longitude": "108.2792366973797",
        "orbital_period": "593.8452597768838",
        "perihelion_distance": "1.073011315055251",
        "perihelion_argument": "208.5330874441576",
        "aphelion_distance": "1.69231619340398",
        "perihelion_time": "2458699.331593598896",
        "mean_anomaly": "339.4906610853835",
        "mean_motion": ".606218529276898",
        "equinox": "J2000",
        "orbit_class": {
            "orbit_class_type": "AMO",
            "orbit_class_description": "Near-Earth asteroid orbits similar to that of 1221 Amor",
            "orbit_class_range": "1.017 AU < q (perihelion) < 1.3 AU"
        }
    },
    "is_sentry_object": false
}